#cP2016  3 23 18  0  0.00000000     192 ORBIT IGb08 HLM  IGS
## 1889 324000.00000000   900.00000000 57470 0.7500000000000
+   31   G01G02G03G05G06G07G08G09G10G11G12G13G14G15G16G17G18
+        G19G20G21G22G23G24G25G26G27G28G29G30G31G32  0  0  0
+          0  0  0  0  0  0  0  0  0  0  0  0  0  0  0  0  0
+          0  0  0  0  0  0  0  0  0  0  0  0  0  0  0  0  0
+          0  0  0  0  0  0  0  0  0  0  0  0  0  0  0  0  0
++         3  4  3  4  3  3  3  3  3  3  4  4  4  4  4  3  3
++         3  4  4  4  3  3  4  4  4  4  3  3  3  3  0  0  0
++         0  0  0  0  0  0  0  0  0  0  0  0  0  0  0  0  0
++         0  0  0  0  0  0  0  0  0  0  0  0  0  0  0  0  0
++         0  0  0  0  0  0  0  0  0  0  0  0  0  0  0  0  0
%c G  cc GPS ccc cccc cccc cccc cccc ccccc ccccc ccccc ccccc
%c cc cc ccc ccc cccc cccc cccc cccc ccccc ccccc ccccc ccccc
%f  1.2500000  1.025000000  0.00000000000  0.000000000000000
%f  0.0000000  0.000000000  0.00000000000  0.000000000000000
%i    0    0    0    0      0      0      0      0         0
%i    0    0    0    0      0      0      0      0         0
/* ULTRA ORBIT COMBINATION 18894_18 (57471.750) FROM:       
/* cou emu esu gfu ngu siu usu                              
/* REFERENCED TO emu CLOCK AND TO WEIGHTED MEAN POLE:       
/* PCV:IGS08_1888 OL/AL:FES2004  NONE     Y  ORB:CMB CLK:CMB
*  2016  3 23 22 30  0.00000000
PG01  10555.964831 -20679.550480 -12762.835009     15.218493  8  5  4 191       
PG02 -21544.643350  13309.024944  -6851.707252    598.823208 11  8 11 209       
PG03   1366.351177 -15487.712215 -21530.872665    -39.515591  9  7  4 146       
PG05 -20701.683363   5129.134945  15885.970323   -135.058485  8  5  8 189       
PG06 -19465.226736    299.921170 -18054.205491    164.916983  5  7  8 193       
PG07  -4962.392288 -15039.031490  21392.160605    463.787892  9  8  5 200       
PG08   7521.876418 -19746.823291  16131.189497    -28.621402  6  6  3 229       
PG09  -8084.273024 -24918.234720   4314.774344     95.761181  8  7  9 194       
PG10  24087.640366  10752.284073   3382.541981     20.350246     9  9 142       
PG11   9427.088279 -24550.132145  -4077.653972   -637.885005 10  3  3 206       
PG12  -5547.279515  13520.765361 -22300.381875    373.591241  6  8  8 222       
PG13 -12625.176110  12211.121782  19815.447955     -5.702670 11  9  8 175       
PG14  14025.852638  13519.825654 -17870.873227     -4.260488 11  7  8 199       
PG15  -4191.081973  22581.327218  12911.977387   -303.132671 13  5  6 178       
PG16  21183.471652  -2342.785239  16007.179971    -29.928358  9  8  6 231       
PG17 -13696.841258 -15111.106895 -16786.969768   -202.393513 12  9  7 219       
PG18  16230.427166  16221.719051  14126.232529    496.890426  8  8  5 224       
PG19 -15189.781256  -3168.266764 -21737.390125   -525.424944 10  9  9 201       
PG20  -5363.251198  14987.114198  21110.858110    401.280795 11  9 10 220       
PG21   9388.829917  13178.795420  21798.254009   -516.134429  9  8  8 223       
PG22  17822.452476  -8406.020967 -17664.885291    376.077154  7  7  6 203       
PG23   -481.129724 -25569.024595  -6085.739582   -166.067869  9  6 11 201       
PG24 -12791.499298  21020.972438  -9795.380989    -14.390891  6  7  9 213       
PG25   7758.560766  16550.878597 -19457.646849   -139.673298  8  7  9 162       
PG26  25406.704879   3430.002081   7035.746273   -303.955794  8  4 10 148       
PG27  12888.205363  -9481.501212  21147.201971     74.959441 10  8  3 145       
PG28 -22572.951862 -13345.640092   4983.694058    511.180451  5  4  8 201       
PG29   4598.176741  26140.940457   1522.122405    656.239127  8  5  6 226       
PG30 -14250.403653  -7942.343239  20963.602942    109.746818  6  5  8 196       
PG31  20831.956406  -2444.508866 -16404.085507    277.062129 10  8  9 220       
PG32  15393.094103  11403.078569 -18394.908081      9.417540 10  9  8 298       
*  2016  3 23 22 45  0.00000000
PG01  11679.428964 -21403.640359 -10325.997578     15.219483  8  5  5 195       
PG02 -21063.974548  12374.927336  -9476.248391    598.822557 11  7 11 207       
PG03   3738.195833 -14772.283761 -21752.218375    -39.519549  9  7  4 139       
PG05 -22280.339232   4445.664072  13851.218065   -135.055723  8  5  8 191       
PG06 -17974.687954  -1255.359495 -19499.737511    164.922246  6  7  8 193       
PG07  -3122.214051 -16550.640597  20568.906412    463.786161  9  7  4 202       
PG08   8115.436999 -17894.465699  17914.770554    -28.622933  6  6  3 229       
PG09  -7897.835384 -25305.833777   1494.761609     95.767944  8  6  9 190       
PG10  23495.389328  10829.044960   6163.800190     20.342032  5  9  9 128       
PG11   9931.257045 -24590.138452  -1378.495572   -637.886580  9  3  2 203       
PG12  -7892.832295  12637.401622 -22090.414193    373.593044  6  8  8 223       
PG13 -12962.321548   9884.808065  20852.442239     -5.705142 11  9  8 178       
PG14  14166.049284  15502.379661 -16100.533026     -4.262595 11  7  8 200       
PG15  -4913.386154  21085.845818  15026.789306   -303.134167 13  5  7 186       
PG16  22734.925743  -1627.963086  13869.405069    -29.925932  9  8  7 231       
PG17 -13881.292807 -16960.564674 -14806.474045   -202.393539 12  9  7 218       
PG18  14584.705184  15996.287539  16091.324679    496.893772  9  8  6 223       
PG19 -15432.906913  -5559.352979 -21034.249206   -525.425053 11  9  9 204       
PG20  -7736.792905  14417.400696  20775.570492    401.283028 11  8 10 220       
PG21   7684.838274  14766.318983  21407.453064   -516.135689  9  8  9 224       
PG22  19663.740680  -7672.671935 -16002.686154    376.070942  7  7  7 202       
PG23     20.905025 -24777.807056  -8760.549061   -166.069473  8  6 11 192       
PG24 -13682.006230  21496.904459  -7180.533584    -14.391387  6  6  9 213       
PG25   5576.732165  15948.248632 -20661.010667   -139.679647  8  7  8 163       
PG26  25955.176849   3850.125982   4280.802991   -303.968746  8  5 10 136       
PG27  13491.583843  -7099.490487  21710.807993     74.962861 10  8  4 132       
PG28 -21909.718503 -13248.088036   7772.475696    511.183078  6  4  8 206       
PG29   4394.989595  26183.017610  -1361.839129    656.239624  8  5  6 228       
PG30 -12384.630502  -9503.729162  21484.640531    109.750297  6  5  8 199       
PG31  19413.030491  -1056.994952 -18154.101515    277.060553 10  8  9 222       
PG32  15700.995690  13394.765188 -16715.942806      9.416829 10  9  9 297       
*  2016  3 23 23  0  0.00000000
PG01  12564.579269 -21979.615951  -7709.825293     15.220423  8  5  6 202       
PG02 -20434.637988  11199.086437 -11930.940637    598.822204 11  7 10 208       
PG03   6147.650515 -14180.110508 -21599.212693    -39.523534  9  7  5 179       
PG05 -23653.890255   3899.153186  11579.383328   -135.053021  8  5  8 186       
PG06 -16467.764650  -2991.392907 -20609.342449    164.927479  6  7  7 194       
PG07  -1441.752753 -18080.474891  19392.709335    463.784537  9  7  4 200       
PG08   8857.408832 -15899.575306  19391.093537    -28.624449  6  6  3 229       
PG09  -7640.478024 -25394.961120  -1351.005264     95.774713  8  5  9 186       
PG10  22608.248945  10863.744914   8839.385426     20.333764  7  9  9 103       
PG11  10318.682574 -24370.567574   1344.351239   -637.887935  9  3  3 205       
PG12 -10244.074929  11901.472752 -21503.983313    373.594460  6  7  8 223       
PG13 -13440.358579   7482.529349  21526.875796     -5.707656 11  8  7 176       
PG14  14366.144470  17259.196931 -14050.010075     -4.264521 11  7  9 202       
PG15  -5778.379516  19413.522514  16876.921378   -303.135745 13  4  7 180       
PG16  24080.564504  -1082.859820  11496.146291    -29.923316  8  8  7 230       
PG17 -14109.939705 -18559.959547 -12567.942902   -202.393972 12  9  6 217       
PG18  12734.442367  15806.257649  17791.991320    496.897501  9  8  6 223       
PG19 -15787.019342  -7840.513495 -19973.795861   -525.424980 11  9  8 206       
PG20 -10075.587033  13967.787565  20078.124053    401.285998 11  8 10 220       
PG21   6100.868058  16394.392758  20670.503995   -516.137314 10  8  9 223       
PG22  21335.882087  -7069.947828 -14062.834277    376.064447  7  7  8 203       
PG23    643.754233 -23726.420105 -11279.733369   -166.071006  7  7 11 187       
PG24 -14342.535704  21793.193905  -4440.901060    -14.393481  7  6  9 212       
PG25   3251.183299  15439.674175 -21513.978497   -139.686066  7  7  8 164       
PG26  26217.800041   4167.353652   1452.393312   -303.981730  6  6 10  71       
PG27  14233.120961  -4713.662387  21899.528636     74.966300 10  8  5 120       
PG28 -20954.666286 -13090.622190  10430.465534    511.185046  7  3  8 207       
PG29   4120.602500  25919.134766  -4222.422408    656.240146  8  5  6 228       
PG30 -10571.768950 -11183.988506  21635.877167    109.753745  6  5  8 199       
PG31  17940.422925    534.120180 -19593.095772    277.058977 10  8  8 221       
PG32  16053.444012  15169.849999 -14749.268337      9.416058 10  9  9 297       
